STARLINK-31359          
1 58945U 24027Q   26068.85992824  .00001275  00000+0  55195-4 0  9998
2 58945  53.1579 270.3947 0001284  99.4481 260.6665 15.30181732117905
JINJUSAT-1B             
1 63210U 25052A   26068.66363707  .00019955  00000+0  68430-3 0  9998
2 63210  97.4113 325.4613 0005550  82.1930 277.9941 15.30194857 54866
